NORAD_CAT_ID,OBJECT_NAME,OBJECT_TYPE,EPOCH,MEAN_MOTION,ECCENTRICITY,INCLINATION,RA_OF_ASC_NODE,ARG_OF_PERICENTER,MEAN_ANOMALY,BSTAR,MEAN_MOTION_DOT,MEAN_MOTION_DDOT,TLE_LINE0,TLE_LINE1,TLE_LINE2,SEMIMAJOR_AXIS,PERIOD,APOGEE,PERIGEE,DECAYED
49760.0,STARLINK-3199,PAYLOAD,2022-04-25 22:00:00,15.08828584,0.0001877,53.2204,5.7706,56.6684,176.9823,-0.00080328,-0.00013046,0.0,0 STARLINK-3199,1 49760U 21115AN  22115.91667824 -.00013046  00000-0 -80328-3 0  9990,2 49760  53.2204   5.7706 0001877  56.6684 176.9823 15.08828584  3601,6917.915,95.438,541.0790000000002,538.482,0.0
49760.0,STARLINK-3199,PAYLOAD,2022-04-26 06:00:00,15.08834815,0.0001913,53.22,4.2746,54.0548,191.1653,0.00043451,6.633e-05,0.0,0 STARLINK-3199,1 49760U 21115AN  22116.25001157  .00006633  00000-0  43451-3 0  9997,2 49760  53.2200   4.2746 0001913  54.0548 191.1653 15.08834815 23412,6917.896,95.438,541.085,538.438,0.0
49760.0,STARLINK-3199,PAYLOAD,2022-04-26 14:00:01,15.08829992,0.0001776999999999,53.22,2.7766,60.395,196.4839,0.0021795,0.0003456,0.0,0 STARLINK-3199,1 49760U 21115AN  22116.58335648  .00034560  00000-0  21795-2 0  9994,2 49760  53.2200   2.7766 0001777  60.3950 196.4839 15.08829992  3593,6917.911,95.438,541.005,538.547,0.0
49760.0,STARLINK-3199,PAYLOAD,2022-04-26 22:00:00,15.08837941,0.0001872,53.2201,1.2821,55.2943,213.1214,-0.0010942,-0.00017659,0.0,0 STARLINK-3199,1 49760U 21115AN  22116.91667824 -.00017659  00000-0 -10942-2 0  9999,2 49760  53.2201   1.2821 0001872  55.2943 213.1214 15.08837941  3565,6917.887,95.438,541.047,538.457,0.0
49760.0,STARLINK-3199,PAYLOAD,2022-04-27 14:00:01,15.08809688,0.0001668,53.2201,358.2879,56.7828,234.8864,0.0032726999999999,0.00052139,0.0,0 STARLINK-3199,1 49760U 21115AN  22117.58335648  .00052139  00000-0  32727-2 0  9994,2 49760  53.2201 358.2879 0001668  56.7828 234.8864 15.08809688 23610,6917.973000000001,95.439,540.992,538.684,0.0
49760.0,STARLINK-3199,PAYLOAD,2022-04-28 14:00:01,15.08849244,0.0001659,53.2205,353.7992,54.6619,271.7722,0.00073911,0.00011497,0.0,0 STARLINK-3199,1 49760U 21115AN  22118.58334491  .00011497  00000-0  73911-3 0  9993,2 49760  53.2205 353.7992 0001659  54.6619 271.7722 15.08849244 23766,6917.852,95.437,540.865,538.569,0.0
49760.0,STARLINK-3199,PAYLOAD,2022-04-29 14:00:01,15.08797553,0.0001785,53.2206,349.3104,57.7591,303.4975,0.0038381,0.00061255,0.0,0 STARLINK-3199,1 49760U 21115AN  22119.58334491  .00061255  00000-0  38381-2 0  9992,2 49760  53.2206 349.3104 0001785  57.7591 303.4975 15.08797553 23911,6918.01,95.44,541.11,538.64,0.0
49760.0,STARLINK-3199,PAYLOAD,2022-04-29 22:00:00,15.0883489,0.0001908,53.2206,347.8159,51.8568,320.9668,-0.0022561,-0.0003601,0.0,0 STARLINK-3199,1 49760U 21115AN  22119.91667824 -.00036010  00000-0 -22561-2 0  9994,2 49760  53.2206 347.8159 0001908  51.8568 320.9668 15.08834890 23964,6917.896,95.438,541.081,538.441,0.0
49760.0,STARLINK-3199,PAYLOAD,2022-04-30 14:00:01,15.08808226,0.0001653,53.2206,344.8217,55.2526,340.7234,0.0017785999999999,0.00028107,0.0,0 STARLINK-3199,1 49760U 21115AN  22120.58334491  .00028107  00000-0  17786-2 0  9999,2 49760  53.2206 344.8217 0001653  55.2526 340.7234 15.08808226 24060,6917.978,95.44,540.986,538.6990000000002,0.0
49760.0,STARLINK-3199,PAYLOAD,2022-04-30 22:00:00,15.08821103,0.0001802,53.2204,343.3272,49.3281,358.2166,0.00026912,3.995e-05,0.0,0 STARLINK-3199,1 49760U 21115AN  22120.91667824  .00003995  00000-0  26912-3 0  9995,2 49760  53.2204 343.3272 0001802  49.3281 358.2166 15.08821103  3571,6917.938,95.439,541.05,538.557,0.0
49760.0,STARLINK-3199,PAYLOAD,2022-05-01 14:00:01,15.08838375,0.000168,53.2203,340.3329,57.1336,13.576,-0.00014963,-2.669e-05,0.0,0 STARLINK-3199,1 49760U 21115AN  22121.58334491 -.00002669  00000-0 -14963-3 0  9992,2 49760  53.2203 340.3329 0001680  57.1336  13.5760 15.08838375 24216,6917.885,95.438,540.913,538.5880000000002,0.0
49760.0,STARLINK-3199,PAYLOAD,2022-05-01 22:00:01,15.08823721,0.0001885,53.22,338.8384,52.8591,29.5045,0.00027534,4.095e-05,0.0,0 STARLINK-3199,1 49760U 21115AN  22121.91668981  .00004095  00000-0  27534-3 0  9994,2 49760  53.2200 338.8384 0001885  52.8591  29.5045 15.08823721  3576,6917.93,95.439,541.099,538.491,0.0
49760.0,STARLINK-3199,PAYLOAD,2022-05-02 14:00:01,15.08848427,0.0001792,53.2198,335.8441,60.8729,44.594,-0.0010442,-0.00016872,0.0,0 STARLINK-3199,1 49760U 21115AN  22122.58334491 -.00016872  00000-0 -10442-2 0  9991,2 49760  53.2198 335.8441 0001792  60.8729  44.5940 15.08848427  3607,6917.855,95.437,540.9590000000002,538.48,0.0
49760.0,STARLINK-3199,PAYLOAD,2022-05-02 22:00:01,15.08818958,0.0001978,53.2196,334.3496,56.2502,60.8795,0.0006793999999999,0.00010535,0.0,0 STARLINK-3199,1 49760U 21115AN  22122.91668981  .00010535  00000-0  67940-3 0  9996,2 49760  53.2196 334.3496 0001978  56.2502  60.8795 15.08818958 24410,6917.945,95.439,541.178,538.441,0.0
49760.0,STARLINK-3199,PAYLOAD,2022-05-03 14:00:01,15.08838832,0.0001882,53.2195,331.3552,63.1086,77.1169,0.001312,0.00020654,0.0,0 STARLINK-3199,1 49760U 21115AN  22123.58334491  .00020654  00000-0  13120-2 0  9999,2 49760  53.2195 331.3552 0001882  63.1086  77.1169 15.08838832  3569,6917.884,95.438,541.0509999999998,538.447,0.0
49760.0,STARLINK-3199,PAYLOAD,2022-05-03 22:00:00,15.08839696,0.0002001,53.2193,329.8606,56.3992,95.4325,0.0012827,0.00020185,0.0,0 STARLINK-3199,1 49760U 21115AN  22123.91667824  .00020185  00000-0  12827-2 0  9997,2 49760  53.2193 329.8606 0002001  56.3992  95.4325 15.08839696  3569,6917.880999999999,95.438,541.131,538.362,0.0
49760.0,STARLINK-3199,PAYLOAD,2022-05-04 06:00:02,15.08877824,0.0001869,53.2191,328.36300000000006,56.9733,106.5226,-0.0040685,-0.00064526,0.0,0 STARLINK-3199,1 49760U 21115AN  22124.25002315 -.00064526  00000-0 -40685-2 0  9995,2 49760  53.2191 328.3630 0001869  56.9733 106.5226 15.08877824 24616,6917.765,95.435,540.923,538.337,0.0
49760.0,STARLINK-3199,PAYLOAD,2022-05-04 14:00:01,15.08843175,0.0001814,53.2194,326.8661,61.2436,113.7988,0.0010704,0.0001679,0.0,0 STARLINK-3199,1 49760U 21115AN  22124.58334491  .00016790  00000-0  10704-2 0  9991,2 49760  53.2194 326.8661 0001814  61.2436 113.7988 15.08843175  3608,6917.871,95.437,540.991,538.481,0.0
49760.0,STARLINK-3199,PAYLOAD,2022-05-04 20:00:01,15.08857738,0.0001922,53.2192,325.7453,55.2438,38.5633,-0.0013100999999999,-0.00021088,0.0,0 STARLINK-3199,1 49760U 21115AN  22124.83335648 -.00021088  00000-0 -13101-2 0  9996,2 49760  53.2192 325.7453 0001922  55.2438  38.5633 15.08857738 24703,6917.826,95.436,541.021,538.362,0.0
49760.0,STARLINK-3199,PAYLOAD,2022-05-04 22:00:01,15.08847731,0.0001935,53.2194,325.3716,53.6787,133.0334,-0.00019042,-3.318e-05,0.0,0 STARLINK-3199,1 49760U 21115AN  22124.91668981 -.00003318  00000-0 -19042-3 0  9991,2 49760  53.2194 325.3716 0001935  53.6787 133.0334 15.08847731  3603,6917.857,95.437,541.06,538.383,0.0
49760.0,STARLINK-3199,PAYLOAD,2022-05-05 14:00:01,15.08859039,0.000175,53.2197,322.3772,58.3814,151.4605,-0.0015335999999999,-0.00024625,0.0,0 STARLINK-3199,1 49760U 21115AN  22125.58334491 -.00024625  00000-0 -15336-2 0  9996,2 49760  53.2197 322.3772 0001750  58.3814 151.4605 15.08859039  3567,6917.821999999999,95.436,540.898,538.477,0.0
49760.0,STARLINK-3199,PAYLOAD,2022-05-05 22:00:00,15.08811474,0.0001868,53.2197,320.8826,49.4264,172.0291,0.0018535,0.00029311,0.0,0 STARLINK-3199,1 49760U 21115AN  22125.91667824  .00029311  00000-0  18535-2 0  9991,2 49760  53.2197 320.8826 0001868  49.4264 172.0291 15.08811474 24878,6917.968000000003,95.439,541.125,538.54,0.0
49760.0,STARLINK-3199,PAYLOAD,2022-05-06 14:00:01,15.08818397,0.0001864,53.2176,317.9004,51.5192,193.0703,0.0019166,0.00030329,0.0,0 STARLINK-3199,1 49760U 21115AN  22126.58334491  .00030329  00000-0  19166-2 0  9998,2 49760  53.2176 317.9004 0001864  51.5192 193.0703 15.08818397 24973,6917.946,95.439,541.101,538.5219999999998,0.0
49760.0,STARLINK-3199,PAYLOAD,2022-05-07 14:00:01,15.08851149,0.0001648,53.2205,313.3997,54.0537,225.3653,-0.00070069,-0.00011426,0.0,0 STARLINK-3199,1 49760U 21115AN  22127.58334491 -.00011426  00000-0 -70069-3 0  9998,2 49760  53.2205 313.3997 0001648  54.0537 225.3653 15.08851149 25121,6917.846,95.437,540.851,538.571,0.0
49760.0,STARLINK-3199,PAYLOAD,2022-05-07 22:00:00,15.08818215,0.0001785,53.2205,311.9051,45.8682,245.1624,0.00097285,0.0001522,0.0,0 STARLINK-3199,1 49760U 21115AN  22127.91667824  .00015220  00000-0  97285-3 0  9997,2 49760  53.2205 311.9051 0001785  45.8682 245.1624 15.08818215  3599,6917.946999999999,95.439,541.047,538.577,0.0
49760.0,STARLINK-3199,PAYLOAD,2022-05-08 14:00:01,15.08846825,0.0001571999999999,53.2206,308.9112,52.1077,262.0739,-0.00048131,-7.941e-05,0.0,0 STARLINK-3199,1 49760U 21115AN  22128.58334491 -.00007941  00000-0 -48131-3 0  9991,2 49760  53.2206 308.9112 0001572  52.1077 262.0739 15.08846825  3602,6917.86,95.437,540.812,538.637,0.0
49760.0,STARLINK-3199,PAYLOAD,2022-05-08 22:00:00,15.08831298,0.0001764,53.2202,307.4166,46.371,279.4132,0.00082119,0.00012802,0.0,0 STARLINK-3199,1 49760U 21115AN  22128.91667824  .00012802  00000-0  82119-3 0  9991,2 49760  53.2202 307.4166 0001764  46.3710 279.4132 15.08831298 25323,6917.906999999997,95.438,540.992,538.552,0.0
49760.0,STARLINK-3199,PAYLOAD,2022-05-09 14:00:01,15.0884551,0.0001656,53.2202,304.4228,54.9095,294.1057,-0.00088773,-0.00014391,0.0,0 STARLINK-3199,1 49760U 21115AN  22129.58335648 -.00014391  00000-0 -88773-3 0  9990,2 49760  53.2202 304.4228 0001656  54.9095 294.1057 15.08845510  3610,6917.864000000001,95.437,540.874,538.5830000000002,0.0
49760.0,STARLINK-3199,PAYLOAD,2022-05-09 22:00:00,15.08818587,0.0001791,53.2196,302.9279,48.558,311.9962,0.0028947,0.00046056,0.0,0 STARLINK-3199,1 49760U 21115AN  22129.91667824  .00046056  00000-0  28947-2 0  9998,2 49760  53.2196 302.9279 0001791  48.5580 311.9962 15.08818587  3571,6917.946,95.439,541.05,538.572,0.0
